GLOBALSTAR M035         
1 25851U 99037A   24280.66245866 -.00000098  00000+0 -13173-2 0  9993
2 25851  51.9932 260.3493 0013729 292.9917 238.4798 11.04533198 68246
GLOBALSTAR M032         
1 25852U 99037B   24280.83129621 -.00000062  00000+0  14420-3 0  9990
2 25852  51.9924 102.6449 0011608 100.1982 260.0128 11.19063847106429
GLOBALSTAR M051         
1 25853U 99037C   24280.70501715 -.00000068  00000+0  95446-4 0  9999
2 25853  51.9792 292.3869 0001335 114.4506 245.6444 11.42200600103425
GLOBALSTAR M030         
1 25854U 99037D   24280.79639395 -.00000062  00000+0  27444-3 0  9991
2 25854  51.9850 114.3810 0003237 324.4308  35.6292 11.55102372120761
GLOBALSTAR M048         
1 25872U 99041A   24281.21252000 -.00000018  00000+0  14039-2 0  9994
2 25872  51.9357 216.4134 0013569 104.0177  38.7194 11.33850099 96175
GLOBALSTAR M043         
1 25874U 99041C   24280.59998876 -.00000098  00000+0 -90393-3 0  9991
2 25874  51.9417 315.4078 0012957 238.7044 289.6159 11.25683134 94316
